NORAD_CAT_ID,OBJECT_NAME,OBJECT_TYPE,EPOCH,MEAN_MOTION,ECCENTRICITY,INCLINATION,RA_OF_ASC_NODE,ARG_OF_PERICENTER,MEAN_ANOMALY,BSTAR,MEAN_MOTION_DOT,MEAN_MOTION_DDOT,TLE_LINE0,TLE_LINE1,TLE_LINE2,SEMIMAJOR_AXIS,PERIOD,APOGEE,PERIGEE,DECAYED
53848.0,STARLINK-4780,PAYLOAD,2023-04-02 10:48:23,15.08852102,0.000131,53.2175,67.324,90.2555,269.8588,0.00032594,4.905e-05,0.0,0 STARLINK-4780,1 53848U 22114AG  23092.45027230  .00004905  00000-0  32594-3 0  9991,2 53848  53.2175  67.3240 0001310  90.2555 269.8588 15.08852102 31109,6917.843,95.437,540.615,538.802,0.0
53848.0,STARLINK-4780,PAYLOAD,2023-04-02 15:34:33,15.08836071,6.31e-05,53.2183,66.4325,106.0758,254.0304,8.8538e-06,-1.47e-06,0.0,0 STARLINK-4780,1 53848U 22114AG  23092.64899456 -.00000147  00000-0  88538-5 0  9995,2 53848  53.2183  66.4325 0000631 106.0758 254.0304 15.08836071 30599,6917.892,95.438,540.194,539.321,0.0
53848.0,STARLINK-4780,PAYLOAD,2023-04-02 21:56:06,15.08836249,0.000114,53.2183,65.2429,86.8107,273.3016,5.1326e-05,5.29e-06,0.0,0 STARLINK-4780,1 53848U 22114AG  23092.91395851  .00000529  00000-0  51326-4 0  9992,2 53848  53.2183  65.2429 0001140  86.8107 273.3016 15.08836249 31176,6917.892,95.438,540.545,538.968,0.0
53848.0,STARLINK-4780,PAYLOAD,2023-04-03 04:17:38,15.08846689,0.000118,53.2177,64.0543,84.4087,275.7039,0.00025894,3.836e-05,0.0,0 STARLINK-4780,1 53848U 22114AG  23093.17891516  .00003836  00000-0  25894-3 0  9994,2 53848  53.2177  64.0543 0001180  84.4087 275.7039 15.08846689 30672,6917.86,95.437,540.541,538.909,0.0
53848.0,STARLINK-4780,PAYLOAD,2023-04-03 20:11:29,15.08843547,0.0001504,53.2182,61.0805,94.202,265.9144,0.00014785,2.066e-05,0.0,0 STARLINK-4780,1 53848U 22114AG  23093.84131581  .00002066  00000-0  14785-3 0  9998,2 53848  53.2182  61.0805 0001504  94.2020 265.9144 15.08843547 30771,6917.87,95.437,540.775,538.694,0.0
53848.0,STARLINK-4780,PAYLOAD,2023-04-04 04:08:25,15.08851398,0.00013,53.2179,59.5928,101.2492,258.8647,0.00022147,3.24e-05,0.0,0 STARLINK-4780,1 53848U 22114AG  23094.17251167  .00003240  00000-0  22147-3 0  9994,2 53848  53.2179  59.5928 0001300 101.2492 258.8647 15.08851398 31369,6917.846,95.437,540.61,538.811,0.0
53848.0,STARLINK-4780,PAYLOAD,2023-04-05 03:59:12,15.08839483,0.000138,53.2178,55.1336,97.637,262.4779,0.00013862,1.919e-05,0.0,0 STARLINK-4780,1 53848U 22114AG  23095.16611892  .00001919  00000-0  13862-3 0  9994,2 53848  53.2178  55.1336 0001380  97.6370 262.4779 15.08839483 30978,6917.882,95.438,540.702,538.792,0.0
53848.0,STARLINK-4780,PAYLOAD,2023-04-05 07:09:58,15.08840729,0.0001325,53.2173,54.5383,95.9604,264.1539,0.00017485,2.496e-05,0.0,0 STARLINK-4780,1 53848U 22114AG  23095.29859866  .00002496  00000-0  17485-3 0  9999,2 53848  53.2173  54.5383 0001325  95.9604 264.1539 15.08840729 31539,6917.878,95.438,540.66,538.827,0.0
53848.0,STARLINK-4780,PAYLOAD,2023-04-06 07:00:45,15.08854223,0.0001212,53.2176,50.0782,93.0495,267.0636,0.00045935,7.033e-05,0.0,0 STARLINK-4780,1 53848U 22114AG  23096.29219475  .00007033  00000-0  45935-3 0  9999,2 53848  53.2176  50.0782 0001212  93.0495 267.0636 15.08854223 31149,6917.837,95.437,540.54,538.863,0.0
53848.0,STARLINK-4780,PAYLOAD,2023-04-06 21:19:14,15.08840115,0.0001545,53.2178,47.4007,98.5025,261.6142,0.00010482,1.381e-05,0.0,0 STARLINK-4780,1 53848U 22114AG  23096.88835975  .00001381  00000-0  10482-3 0  9992,2 53848  53.2178  47.4007 0001545  98.5025 261.6142 15.08840115 31236,6917.88,95.438,540.814,538.676,0.0
53848.0,STARLINK-4780,PAYLOAD,2023-04-07 05:16:10,15.08840762,0.0001094,53.2175,45.9141,90.3448,269.7669,0.00013095,1.797e-05,0.0,0 STARLINK-4780,1 53848U 22114AG  23097.21956059  .00001797  00000-0  13095-3 0  9991,2 53848  53.2175  45.9141 0001094  90.3448 269.7669 15.08840762 31829,6917.878,95.438,540.5,538.986,0.0
53848.0,STARLINK-4780,PAYLOAD,2023-04-08 05:06:56,15.08852113,0.0001129,53.2189,41.4557,83.2062,276.9059,0.00025698,3.806e-05,0.0,0 STARLINK-4780,1 53848U 22114AG  23098.21315593  .00003806  00000-0  25698-3 0  9999,2 53848  53.2189  41.4557 0001129  83.2062 276.9059 15.08852113 31431,6917.843,95.437,540.489,538.927,0.0
53848.0,STARLINK-4780,PAYLOAD,2023-04-08 06:42:19,15.08854655,0.0001115,53.2184,41.1572,84.3174,275.7945,0.00041265,6.288e-05,0.0,0 STARLINK-4780,1 53848U 22114AG  23098.27939544  .00006288  00000-0  41265-3 0  9998,2 53848  53.2184  41.1572 0001115  84.3174 275.7945 15.08854655 31985,6917.836,95.437,540.472,538.929,0.0
53848.0,STARLINK-4780,PAYLOAD,2023-04-09 06:33:07,15.08845241,0.0001345,53.2176,36.6955,89.7252,270.3894,0.00017604,2.515e-05,0.0,0 STARLINK-4780,1 53848U 22114AG  23099.27299893  .00002515  00000-0  17604-3 0  9994,2 53848  53.2176  36.6955 0001345  89.7252 270.3894 15.08845241 31593,6917.864,95.437,540.66,538.799,0.0
53848.0,STARLINK-4780,PAYLOAD,2023-04-09 19:16:12,15.08837067,0.000135,53.2173,34.3166,93.2502,266.8644,-2.4444e-05,-6.77e-06,0.0,0 STARLINK-4780,1 53848U 22114AG  23099.80292129 -.00000677  00000-0 -24444-4 0  9998,2 53848  53.2173  34.3166 0001350  93.2502 266.8644 15.08837067 31672,6917.889,95.438,540.688,538.82,0.0
53848.0,STARLINK-4780,PAYLOAD,2023-04-10 04:48:31,15.08844352,0.0001305,53.2167,32.534,104.0944,256.0193,0.00026173,3.88e-05,0.0,0 STARLINK-4780,1 53848U 22114AG  23100.20035926  .00003880  00000-0  26173-3 0  9992,2 53848  53.2167  32.5340 0001305 104.0944 256.0193 15.08844352 31732,6917.867,95.437,540.635,538.829,0.0
53848.0,STARLINK-4780,PAYLOAD,2023-04-10 19:06:59,15.08842804,0.0001546,53.2183,29.8587,96.3454,263.7715,0.00025237,3.731e-05,0.0,0 STARLINK-4780,1 53848U 22114AG  23100.79652342  .00003731  00000-0  25237-3 0  9998,2 53848  53.2183  29.8587 0001546  96.3454 263.7715 15.08842804 32363,6917.872,95.437,540.806,538.667,0.0
53848.0,STARLINK-4780,PAYLOAD,2023-04-11 04:39:18,15.08853804,0.0001474,53.2182,28.0739,98.6456,261.4703,0.0004657,7.134e-05,0.0,0 STARLINK-4780,1 53848U 22114AG  23101.19395972  .00007134  00000-0  46570-3 0  9990,2 53848  53.2182  28.0739 0001474  98.6456 261.4703 15.08853804 32420,6917.838,95.437,540.723,538.684,0.0
53848.0,STARLINK-4780,PAYLOAD,2023-04-12 01:19:19,15.08840172,0.0001111,53.2182,24.2085,97.5961,262.5157,0.00019562,2.827e-05,0.0,0 STARLINK-4780,1 53848U 22114AG  23102.05508657  .00002827  00000-0  19562-3 0  9997,2 53848  53.2182  24.2085 0001111  97.5961 262.5157 15.08840172 32013,6917.88,95.438,540.513,538.976,0.0
53848.0,STARLINK-4780,PAYLOAD,2023-04-13 02:45:29,15.08847421,0.0001033,53.2184,19.455,80.2996,279.8112,0.00039613,6.023e-05,0.0,0 STARLINK-4780,1 53848U 22114AG  23103.11492889  .00006023  00000-0  39613-3 0  9995,2 53848  53.2184  19.4550 0001033  80.2996 279.8112 15.08847421 32711,6917.858,95.437,540.437,539.008,0.0
53848.0,STARLINK-4780,PAYLOAD,2023-04-14 02:36:16,15.08857952,0.0001019,53.2189,14.9937,96.7657,263.3451,0.00049193,7.554e-05,0.0,0 STARLINK-4780,1 53848U 22114AG  23104.10852299  .00007554  00000-0  49193-3 0  9994,2 53848  53.2189  14.9937 0001019  96.7657 263.3451 15.08857952 32865,6917.826,95.436,540.395,538.986,0.0
53848.0,STARLINK-4780,PAYLOAD,2023-04-15 02:27:03,15.08849402,0.0001243,53.2189,10.5322,90.4057,269.7078,0.00014741,2.06e-05,0.0,0 STARLINK-4780,1 53848U 22114AG  23105.10212368  .00002060  00000-0  14741-3 0  9990,2 53848  53.2189  10.5322 0001243  90.4057 269.7078 15.08849402 33013,6917.852,95.437,540.577,538.857,0.0
53848.0,STARLINK-4780,PAYLOAD,2023-04-15 21:31:41,15.08841916,0.0001118,53.2186,6.9627,107.3693,252.7421,-2.4175e-05,-6.73e-06,0.0,0 STARLINK-4780,1 53848U 22114AG  23105.89700464 -.00000673  00000-0 -24175-4 0  9998,2 53848  53.2186   6.9627 0001118 107.3693 252.7421 15.08841916 32590,6917.875,95.437,540.513,538.966,0.0
53848.0,STARLINK-4780,PAYLOAD,2023-04-16 02:17:50,15.08851083,0.0001338,53.2184,6.0711,105.8204,254.2936,0.00038873,5.906e-05,0.0,0 STARLINK-4780,1 53848U 22114AG  23106.09572322  .00005906  00000-0  38873-3 0  9992,2 53848  53.2184   6.0711 0001338 105.8204 254.2936 15.08851083 32626,6917.847,95.437,540.637,538.786,0.0
53848.0,STARLINK-4780,PAYLOAD,2023-04-16 21:22:28,15.08841486,0.0002189,53.2176,2.5024,145.1338,214.9797,0.00028442,4.241e-05,0.0,0 STARLINK-4780,1 53848U 22114AG  23106.89060681  .00004241  00000-0  28442-3 0  9992,2 53848  53.2176   2.5024 0002189 145.1338 214.9797 15.08841486 33282,6917.876,95.437,541.255,538.227,0.0
53848.0,STARLINK-4780,PAYLOAD,2023-04-17 02:08:38,15.08842601,0.0001183,53.2174,1.6101,94.0175,266.0953,0.00050646,7.782e-05,0.0,0 STARLINK-4780,1 53848U 22114AG  23107.08933132  .00007782  00000-0  50646-3 0  9998,2 53848  53.2174   1.6101 0001183  94.0175 266.0953 15.08842601 32775,6917.872,95.437,540.556,538.919,0.0
53848.0,STARLINK-4780,PAYLOAD,2023-04-17 16:27:06,15.08836405,0.0001385,53.2171,358.9367,81.2633,278.8516,0.00023666,3.48e-05,0.0,0 STARLINK-4780,1 53848U 22114AG  23107.68549720  .00003480  00000-0  23666-3 0  9993,2 53848  53.2171 358.9367 0001385  81.2633 278.8516 15.08836405 32866,6917.891,95.438,540.715,538.798,0.0
53848.0,STARLINK-4780,PAYLOAD,2023-04-17 21:13:16,15.08834966,0.0001355,53.2172,358.0439,83.2379,276.8768,0.00022816,3.345e-05,0.0,0 STARLINK-4780,1 53848U 22114AG  23107.88421851  .00003345  00000-0  22816-3 0  9995,2 53848  53.2172 358.0439 0001355  83.2379 276.8768 15.08834966 33435,6917.896,95.438,540.698,538.823,0.0
53848.0,STARLINK-4780,PAYLOAD,2023-04-18 01:59:25,15.08844821,0.0001281,53.2172,357.1498,93.1138,267.0001,0.00040409,6.15e-05,0.0,0 STARLINK-4780,1 53848U 22114AG  23108.08293500  .00006150  00000-0  40409-3 0  9991,2 53848  53.2172 357.1498 0001281  93.1138 267.0001 15.08844821 33467,6917.866,95.437,540.617,538.844,0.0
53848.0,STARLINK-4780,PAYLOAD,2023-04-18 16:17:54,15.08836159,0.0001207,53.217,354.4734,85.7852,274.3278,0.00026254,3.892e-05,0.0,0 STARLINK-4780,1 53848U 22114AG  23108.67910081  .00003892  00000-0  26254-3 0  9998,2 53848  53.2170 354.4734 0001207  85.7852 274.3278 15.08836159 33558,6917.892,95.438,540.592,538.922,0.0
